STARLINK-3612           
1 51770U 22017C   25217.40957415  .00000421  00000+0  44556-4 0  9998
2 51770  53.2158 230.0417 0000985  80.5032 279.6071 15.08836088189965
STARLINK-3614           
1 51771U 22017D   25217.46845180 -.00000455  00000+0 -10507-4 0  9998
2 51771  53.2163 229.7660 0001215  73.9258 286.1868 15.08835782189967
STARLINK-3623           
1 51772U 22017E   25217.32862159  .00000902  00000+0  74752-4 0  9996
2 51772  53.2161 230.4052 0001269  74.4530 285.6602 15.08832164189936
STARLINK-3624           
1 51773U 22017F   25217.46574581  .00004236  00000+0  28407-3 0  9990
2 51773  53.2149 229.7604 0000688  66.4470 293.6594 15.08835786189960
STARLINK-3629           
1 51774U 22017G   25217.32124866  .00000174  00000+0  29007-4 0  9998
2 51774  53.2165 230.4376 0000967  80.4579 279.6523 15.08839247189906
STARLINK-3620           
1 51775U 22017H   25217.33229798 -.00007893  00000+0 -47781-3 0  9995
2 51775  53.2162 230.3878 0000226  66.6882 293.4134 15.08886504189945
STARLINK-3608           
1 51776U 22017J   25217.31757432 -.00000510  00000+0 -13972-4 0  9990
2 51776  53.2158 230.4529 0001220  70.0203 290.0921 15.08836832189908
STARLINK-3625           
1 51777U 22017K   25217.32220442 -.00000590  00000+0 -19005-4 0  9999
2 51777  53.2167 230.4046 0001173  75.1747 284.9375 15.08837719189932
STARLINK-3615           
1 51778U 22017L   25217.39207727  .00000522  00000+0  50876-4 0  9992
2 51778  53.2162 219.9940 0001189  89.4149 270.6979 15.08840598189902
STARLINK-3611           
1 51779U 22017M   25217.31853369 -.00000216  00000+0  44915-5 0  9993
2 51779  53.2160 230.4972 0001124  81.3338 278.7781 15.08837182189909
STARLINK-3617           
1 51780U 22017N   25217.43534550  .00001642  00000+0  12122-3 0  9992
2 51780  53.2160 229.9156 0001188  85.1726 274.9401 15.08842743189772
STARLINK-3580           
1 51781U 22017P   25217.43900509  .00000141  00000+0  26953-4 0  9995
2 51781  53.2165 229.8701 0001122  79.0778 281.0341 15.08843620189777
STARLINK-3616           
1 51782U 22017Q   25217.34242952  .00001013  00000+0  81736-4 0  9996
2 51782  53.2161 240.4958 0000904  83.8735 276.2360 15.08841827189527
STARLINK-3628           
1 51783U 22017R   25217.31117618  .00000464  00000+0  47269-4 0  9996
2 51783  53.2162 230.5313 0001208  83.2067 276.9062 15.08828449189750
STARLINK-3632           
1 51784U 22017S   25217.45648990  .00000743  00000+0  64775-4 0  9995
2 51784  53.2161 239.8294 0001073  83.4678 276.6437 15.08841458189635
STARLINK-3646           
1 51785U 22017T   25217.30011152 -.00016557  00000+0 -10223-2 0  9993
2 51785  53.2162 230.5040 0001306  50.4848 309.6259 15.08921009189759
STARLINK-3638           
1 51786U 22017U   25217.38289306  .00000358  00000+0  40596-4 0  9998
2 51786  53.2163 240.1610 0001166  82.3924 277.7200 15.08840578189622
