[{"OBJECT_NAME":"STARLINK-3612","OBJECT_ID":"2022-017C","EPOCH":"2025-08-05T09:49:47.206560","MEAN_MOTION":15.08836088,"ECCENTRICITY":9.85e-5,"INCLINATION":53.2158,"RA_OF_ASC_NODE":230.0417,"ARG_OF_PERICENTER":80.5032,"MEAN_ANOMALY":279.6071,"EPHEMERIS_TYPE":0,"CLASSIFICATION_TYPE":"U","NORAD_CAT_ID":51770,"ELEMENT_SET_NO":999,"REV_AT_EPOCH":18996,"BSTAR":4.4556e-5,"MEAN_MOTION_DOT":4.21e-6,"MEAN_MOTION_DDOT":0},{"OBJECT_NAME":"STARLINK-3614","OBJECT_ID":"2022-017D","EPOCH":"2025-08-05T11:14:34.235520","MEAN_MOTION":15.08835782,"ECCENTRICITY":0.0001215,"INCLINATION":53.2163,"RA_OF_ASC_NODE":229.766,"ARG_OF_PERICENTER":73.9258,"MEAN_ANOMALY":286.1868,"EPHEMERIS_TYPE":0,"CLASSIFICATION_TYPE":"U","NORAD_CAT_ID":51771,"ELEMENT_SET_NO":999,"REV_AT_EPOCH":18996,"BSTAR":-1.0507e-5,"MEAN_MOTION_DOT":-4.55e-6,"MEAN_MOTION_DDOT":0},{"OBJECT_NAME":"STARLINK-3623","OBJECT_ID":"2022-017E","EPOCH":"2025-08-05T07:53:12.905376","MEAN_MOTION":15.08832164,"ECCENTRICITY":0.0001269,"INCLINATION":53.2161,"RA_OF_ASC_NODE":230.4052,"ARG_OF_PERICENTER":74.453,"MEAN_ANOMALY":285.6602,"EPHEMERIS_TYPE":0,"CLASSIFICATION_TYPE":"U","NORAD_CAT_ID":51772,"ELEMENT_SET_NO":999,"REV_AT_EPOCH":18993,"BSTAR":7.4752e-5,"MEAN_MOTION_DOT":9.02e-6,"MEAN_MOTION_DDOT":0},{"OBJECT_NAME":"STARLINK-3624","OBJECT_ID":"2022-017F","EPOCH":"2025-08-05T11:10:40.437984","MEAN_MOTION":15.08835786,"ECCENTRICITY":6.88e-5,"INCLINATION":53.2149,"RA_OF_ASC_NODE":229.7604,"ARG_OF_PERICENTER":66.447,"MEAN_ANOMALY":293.6594,"EPHEMERIS_TYPE":0,"CLASSIFICATION_TYPE":"U","NORAD_CAT_ID":51773,"ELEMENT_SET_NO":999,"REV_AT_EPOCH":18996,"BSTAR":0.00028407,"MEAN_MOTION_DOT":4.236e-5,"MEAN_MOTION_DDOT":0},{"OBJECT_NAME":"STARLINK-3629","OBJECT_ID":"2022-017G","EPOCH":"2025-08-05T07:42:35.884224","MEAN_MOTION":15.08839247,"ECCENTRICITY":9.67e-5,"INCLINATION":53.2165,"RA_OF_ASC_NODE":230.4376,"ARG_OF_PERICENTER":80.4579,"MEAN_ANOMALY":279.6523,"EPHEMERIS_TYPE":0,"CLASSIFICATION_TYPE":"U","NORAD_CAT_ID":51774,"ELEMENT_SET_NO":999,"REV_AT_EPOCH":18990,"BSTAR":2.9007e-5,"MEAN_MOTION_DOT":1.74e-6,"MEAN_MOTION_DDOT":0},{"OBJECT_NAME":"STARLINK-3620","OBJECT_ID":"2022-017H","EPOCH":"2025-08-05T07:58:30.545472","MEAN_MOTION":15.08886504,"ECCENTRICITY":2.26e-5,"INCLINATION":53.2162,"RA_OF_ASC_NODE":230.3878,"ARG_OF_PERICENTER":66.6882,"MEAN_ANOMALY":293.4134,"EPHEMERIS_TYPE":0,"CLASSIFICATION_TYPE":"U","NORAD_CAT_ID":51775,"ELEMENT_SET_NO":999,"REV_AT_EPOCH":18994,"BSTAR":-0.00047781,"MEAN_MOTION_DOT":-7.893e-5,"MEAN_MOTION_DDOT":0},{"OBJECT_NAME":"STARLINK-3608","OBJECT_ID":"2022-017J","EPOCH":"2025-08-05T07:37:18.421248","MEAN_MOTION":15.08836832,"ECCENTRICITY":0.000122,"INCLINATION":53.2158,"RA_OF_ASC_NODE":230.4529,"ARG_OF_PERICENTER":70.0203,"MEAN_ANOMALY":290.0921,"EPHEMERIS_TYPE":0,"CLASSIFICATION_TYPE":"U","NORAD_CAT_ID":51776,"ELEMENT_SET_NO":999,"REV_AT_EPOCH":18990,"BSTAR":-1.3972e-5,"MEAN_MOTION_DOT":-5.1e-6,"MEAN_MOTION_DDOT":0},{"OBJECT_NAME":"STARLINK-3625","OBJECT_ID":"2022-017K","EPOCH":"2025-08-05T07:43:58.461888","MEAN_MOTION":15.08837719,"ECCENTRICITY":0.0001173,"INCLINATION":53.2167,"RA_OF_ASC_NODE":230.4046,"ARG_OF_PERICENTER":75.1747,"MEAN_ANOMALY":284.9375,"EPHEMERIS_TYPE":0,"CLASSIFICATION_TYPE":"U","NORAD_CAT_ID":51777,"ELEMENT_SET_NO":999,"REV_AT_EPOCH":18993,"BSTAR":-1.9005e-5,"MEAN_MOTION_DOT":-5.9e-6,"MEAN_MOTION_DDOT":0},{"OBJECT_NAME":"STARLINK-3615","OBJECT_ID":"2022-017L","EPOCH":"2025-08-05T09:24:35.476128","MEAN_MOTION":15.08840598,"ECCENTRICITY":0.0001189,"INCLINATION":53.2162,"RA_OF_ASC_NODE":219.994,"ARG_OF_PERICENTER":89.4149,"MEAN_ANOMALY":270.6979,"EPHEMERIS_TYPE":0,"CLASSIFICATION_TYPE":"U","NORAD_CAT_ID":51778,"ELEMENT_SET_NO":999,"REV_AT_EPOCH":18990,"BSTAR":5.0876e-5,"MEAN_MOTION_DOT":5.22e-6,"MEAN_MOTION_DDOT":0},{"OBJECT_NAME":"STARLINK-3611","OBJECT_ID":"2022-017M","EPOCH":"2025-08-05T07:38:41.310816","MEAN_MOTION":15.08837182,"ECCENTRICITY":0.0001124,"INCLINATION":53.216,"RA_OF_ASC_NODE":230.4972,"ARG_OF_PERICENTER":81.3338,"MEAN_ANOMALY":278.7781,"EPHEMERIS_TYPE":0,"CLASSIFICATION_TYPE":"U","NORAD_CAT_ID":51779,"ELEMENT_SET_NO":999,"REV_AT_EPOCH":18990,"BSTAR":4.4915e-6,"MEAN_MOTION_DOT":-2.16e-6,"MEAN_MOTION_DDOT":0},{"OBJECT_NAME":"STARLINK-3617","OBJECT_ID":"2022-017N","EPOCH":"2025-08-05T10:26:53.851200","MEAN_MOTION":15.08842743,"ECCENTRICITY":0.0001188,"INCLINATION":53.216,"RA_OF_ASC_NODE":229.9156,"ARG_OF_PERICENTER":85.1726,"MEAN_ANOMALY":274.9401,"EPHEMERIS_TYPE":0,"CLASSIFICATION_TYPE":"U","NORAD_CAT_ID":51780,"ELEMENT_SET_NO":999,"REV_AT_EPOCH":18977,"BSTAR":0.00012122,"MEAN_MOTION_DOT":1.642e-5,"MEAN_MOTION_DDOT":0},{"OBJECT_NAME":"STARLINK-3580","OBJECT_ID":"2022-017P","EPOCH":"2025-08-05T10:32:10.039776","MEAN_MOTION":15.0884362,"ECCENTRICITY":0.0001122,"INCLINATION":53.2165,"RA_OF_ASC_NODE":229.8701,"ARG_OF_PERICENTER":79.0778,"MEAN_ANOMALY":281.0341,"EPHEMERIS_TYPE":0,"CLASSIFICATION_TYPE":"U","NORAD_CAT_ID":51781,"ELEMENT_SET_NO":999,"REV_AT_EPOCH":18977,"BSTAR":2.6953e-5,"MEAN_MOTION_DOT":1.41e-6,"MEAN_MOTION_DDOT":0},{"OBJECT_NAME":"STARLINK-3616","OBJECT_ID":"2022-017Q","EPOCH":"2025-08-05T08:13:05.910528","MEAN_MOTION":15.08841827,"ECCENTRICITY":9.04e-5,"INCLINATION":53.2161,"RA_OF_ASC_NODE":240.4958,"ARG_OF_PERICENTER":83.8735,"MEAN_ANOMALY":276.236,"EPHEMERIS_TYPE":0,"CLASSIFICATION_TYPE":"U","NORAD_CAT_ID":51782,"ELEMENT_SET_NO":999,"REV_AT_EPOCH":18952,"BSTAR":8.1736e-5,"MEAN_MOTION_DOT":1.013e-5,"MEAN_MOTION_DDOT":0},{"OBJECT_NAME":"STARLINK-3628","OBJECT_ID":"2022-017R","EPOCH":"2025-08-05T07:28:05.621952","MEAN_MOTION":15.08828449,"ECCENTRICITY":0.0001208,"INCLINATION":53.2162,"RA_OF_ASC_NODE":230.5313,"ARG_OF_PERICENTER":83.2067,"MEAN_ANOMALY":276.9062,"EPHEMERIS_TYPE":0,"CLASSIFICATION_TYPE":"U","NORAD_CAT_ID":51783,"ELEMENT_SET_NO":999,"REV_AT_EPOCH":18975,"BSTAR":4.7269e-5,"MEAN_MOTION_DOT":4.64e-6,"MEAN_MOTION_DDOT":0},{"OBJECT_NAME":"STARLINK-3632","OBJECT_ID":"2022-017S","EPOCH":"2025-08-05T10:57:20.727360","MEAN_MOTION":15.08841458,"ECCENTRICITY":0.0001073,"INCLINATION":53.2161,"RA_OF_ASC_NODE":239.8294,"ARG_OF_PERICENTER":83.4678,"MEAN_ANOMALY":276.6437,"EPHEMERIS_TYPE":0,"CLASSIFICATION_TYPE":"U","NORAD_CAT_ID":51784,"ELEMENT_SET_NO":999,"REV_AT_EPOCH":18963,"BSTAR":6.4775e-5,"MEAN_MOTION_DOT":7.43e-6,"MEAN_MOTION_DDOT":0},{"OBJECT_NAME":"STARLINK-3646","OBJECT_ID":"2022-017T","EPOCH":"2025-08-05T07:12:09.635328","MEAN_MOTION":15.08921009,"ECCENTRICITY":0.0001306,"INCLINATION":53.2162,"RA_OF_ASC_NODE":230.504,"ARG_OF_PERICENTER":50.4848,"MEAN_ANOMALY":309.6259,"EPHEMERIS_TYPE":0,"CLASSIFICATION_TYPE":"U","NORAD_CAT_ID":51785,"ELEMENT_SET_NO":999,"REV_AT_EPOCH":18975,"BSTAR":-0.0010223,"MEAN_MOTION_DOT":-0.00016557,"MEAN_MOTION_DDOT":0},{"OBJECT_NAME":"STARLINK-3638","OBJECT_ID":"2022-017U","EPOCH":"2025-08-05T09:11:21.960384","MEAN_MOTION":15.08840578,"ECCENTRICITY":0.0001166,"INCLINATION":53.2163,"RA_OF_ASC_NODE":240.161,"ARG_OF_PERICENTER":82.3924,"MEAN_ANOMALY":277.72,"EPHEMERIS_TYPE":0,"CLASSIFICATION_TYPE":"U","NORAD_CAT_ID":51786,"ELEMENT_SET_NO":999,"REV_AT_EPOCH":18962,"BSTAR":4.0596e-5,"MEAN_MOTION_DOT":3.58e-6,"MEAN_MOTION_DDOT":0}]
